[{"OBJECT_NAME":"OBJECT H","OBJECT_ID":"2023-091H","EPOCH":"2026-03-09T22:34:46.487712","MEAN_MOTION":15.26380881,"ECCENTRICITY":0.00117854,"INCLINATION":97.5166,"RA_OF_ASC_NODE":131.4381,"ARG_OF_PERICENTER":104.1062,"MEAN_ANOMALY":256.1487,"EPHEMERIS_TYPE":0,"CLASSIFICATION_TYPE":"U","NORAD_CAT_ID":57173,"ELEMENT_SET_NO":999,"REV_AT_EPOCH":14915,"BSTAR":0.00056321781,"MEAN_MOTION_DOT":0.00014617,"MEAN_MOTION_DDOT":0},{"OBJECT_NAME":"STARLINK-32759","OBJECT_ID":"2025-014S","EPOCH":"2026-03-09T07:01:10.009344","MEAN_MOTION":15.27605558,"ECCENTRICITY":0.00036256,"INCLINATION":42.9997,"RA_OF_ASC_NODE":160.3567,"ARG_OF_PERICENTER":294.6034,"MEAN_ANOMALY":65.444,"EPHEMERIS_TYPE":0,"CLASSIFICATION_TYPE":"U","NORAD_CAT_ID":62751,"ELEMENT_SET_NO":999,"REV_AT_EPOCH":6315,"BSTAR":0.0012869334,"MEAN_MOTION_DOT":0.00035353,"MEAN_MOTION_DDOT":0}]
